NORAD_CAT_ID,OBJECT_NAME,OBJECT_TYPE,EPOCH,MEAN_MOTION,ECCENTRICITY,INCLINATION,RA_OF_ASC_NODE,ARG_OF_PERICENTER,MEAN_ANOMALY,BSTAR,MEAN_MOTION_DOT,MEAN_MOTION_DDOT,TLE_LINE0,TLE_LINE1,TLE_LINE2,SEMIMAJOR_AXIS,PERIOD,APOGEE,PERIGEE,DECAYED
53722.0,STARLINK-4700,PAYLOAD,2023-08-31 21:05:26,15.08837564,0.0001225,53.2152,67.7104,86.2911,273.8221,9.1854e-06,-1.42e-06,0.0,0 STARLINK-4700,1 53722U 22107Y   23243.87878194 -.00000142  00000-0  91854-5 0  9997,2 53722  53.2152  67.7104 0001225  86.2911 273.8221 15.08837564 55395,6917.888,95.438,540.6,538.905,0.0
53722.0,STARLINK-4700,PAYLOAD,2023-08-31 22:40:49,15.08838696,0.0001198,53.2151,67.4128,85.6565,274.4564,1.1728e-06,-2.69e-06,0.0,0 STARLINK-4700,1 53722U 22107Y   23243.94502147 -.00000269  00000-0  11728-5 0  9999,2 53722  53.2151  67.4128 0001198  85.6565 274.4564 15.08838696 54959,6917.884,95.438,540.578,538.921,0.0
53722.0,STARLINK-4700,PAYLOAD,2023-09-01 12:59:18,15.0883704,0.0001321,53.2161,64.7362,88.7282,271.3862,4.7772e-06,-2.12e-06,0.0,0 STARLINK-4700,1 53722U 22107Y   23244.54118481 -.00000212  00000-0  47772-5 0  9996,2 53722  53.2161  64.7362 0001321  88.7282 271.3862 15.08837040 55497,6917.889,95.438,540.668,538.841,0.0
53722.0,STARLINK-4700,PAYLOAD,2023-09-01 20:56:13,15.08840949,0.0001284,53.2168,63.2498,88.8024,271.3115,4.7036e-05,4.61e-06,0.0,0 STARLINK-4700,1 53722U 22107Y   23244.87238119  .00000461  00000-0  47036-4 0  9990,2 53722  53.2168  63.2498 0001284  88.8024 271.3115 15.08840949 55540,6917.877,95.437,540.631,538.854,0.0
53722.0,STARLINK-4700,PAYLOAD,2023-09-02 11:14:42,15.08836935,0.0001339,53.2156,60.5728,87.6058,272.5087,5.4232e-05,5.75e-06,0.0,0 STARLINK-4700,1 53722U 22107Y   23245.46854499  .00000575  00000-0  54232-4 0  9993,2 53722  53.2156  60.5728 0001339  87.6058 272.5087 15.08836935 55189,6917.89,95.438,540.681,538.828,0.0
53722.0,STARLINK-4700,PAYLOAD,2023-09-02 12:50:05,15.08835158,0.000135,53.2164,60.2754,88.2815,271.8332,3.7495e-05,3.09e-06,0.0,0 STARLINK-4700,1 53722U 22107Y   23245.53478681  .00000309  00000-0  37495-4 0  9993,2 53722  53.2164  60.2754 0001350  88.2815 271.8332 15.08835158 55647,6917.895,95.438,540.694,538.826,0.0
53722.0,STARLINK-4700,PAYLOAD,2023-09-02 20:47:00,15.08844186,0.0001464,53.2179,58.7888,87.4183,272.6977,0.00010996,1.463e-05,0.0,0 STARLINK-4700,1 53722U 22107Y   23245.86597988  .00001463  00000-0  10996-3 0  9999,2 53722  53.2179  58.7888 0001464  87.4183 272.6977 15.08844186 55698,6917.868,95.437,540.745,538.72,0.0
53722.0,STARLINK-4700,PAYLOAD,2023-09-03 04:43:56,15.08841872,0.0001533,53.2186,57.3014,85.7555,274.3612,8.0938e-05,1e-05,0.0,0 STARLINK-4700,1 53722U 22107Y   23246.19718265  .00001000  00000-0  80938-4 0  9990,2 53722  53.2186  57.3014 0001533  85.7555 274.3612 15.08841872 55743,6917.875,95.437,540.8,538.679,0.0
53722.0,STARLINK-4700,PAYLOAD,2023-09-04 10:56:16,15.08834619,0.0001266,53.2176,51.6523,93.6275,266.4861,2.6471e-05,1.33e-06,0.0,0 STARLINK-4700,1 53722U 22107Y   23247.45574706  .00000133  00000-0  26471-4 0  9998,2 53722  53.2176  51.6523 0001266  93.6275 266.4861 15.08834619 55484,6917.897,95.438,540.638,538.886,0.0
53722.0,STARLINK-4700,PAYLOAD,2023-09-05 04:25:30,15.08838379,0.0001247,53.2172,48.3804,101.6672,258.446,2.8131e-06,-2.43e-06,0.0,0 STARLINK-4700,1 53722U 22107Y   23248.18438633 -.00000243  00000-0  28131-5 0  9996,2 53722  53.2172  48.3804 0001247 101.6672 258.4460 15.08838379 56041,6917.885,95.438,540.613,538.888,0.0
53722.0,STARLINK-4700,PAYLOAD,2023-09-05 17:08:35,15.08842833,0.0001343,53.2173,46.0015,92.7913,267.3233,2.9164e-05,1.76e-06,0.0,0 STARLINK-4700,1 53722U 22107Y   23248.71430296  .00000176  00000-0  29164-4 0  9992,2 53722  53.2173  46.0015 0001343  92.7913 267.3233 15.08842833 55671,6917.872,95.437,540.666,538.808,0.0
53722.0,STARLINK-4700,PAYLOAD,2023-09-06 20:10:08,15.08843243,0.0001201,53.218,40.9458,95.6185,264.4944,0.00011124,1.483e-05,0.0,0 STARLINK-4700,1 53722U 22107Y   23249.84038116  .00001483  00000-0  11124-3 0  9990,2 53722  53.2180  40.9458 0001201  95.6185 264.4944 15.08843243 56291,6917.87,95.437,540.566,538.905,0.0
53722.0,STARLINK-4700,PAYLOAD,2023-09-07 13:39:23,15.08839568,0.0001294,53.2188,37.673,101.9343,258.1795,2.8336e-05,1.63e-06,0.0,0 STARLINK-4700,1 53722U 22107Y   23250.56902618  .00000163  00000-0  28336-4 0  9996,2 53722  53.2188  37.6730 0001294 101.9343 258.1795 15.08839568 55955,6917.882,95.438,540.642,538.852,0.0
53722.0,STARLINK-4700,PAYLOAD,2023-09-08 13:30:11,15.08833419,0.0001617,53.2183,33.2136,79.8168,280.3007,-3.3929e-05,-8.28e-06,0.0,0 STARLINK-4700,1 53722U 22107Y   23251.56263445 -.00000828  00000-0 -33929-4 0  9999,2 53722  53.2183  33.2136 0001617  79.8168 280.3007 15.08833419 56558,6917.901,95.438,540.884,538.647,0.0
53722.0,STARLINK-4700,PAYLOAD,2023-09-08 16:40:57,15.08837541,0.0001607,53.2174,32.6226,71.7959,288.3208,-4.1554e-05,-9.49e-06,0.0,0 STARLINK-4700,1 53722U 22107Y   23251.69511264 -.00000949  00000-0 -41554-4 0  9995,2 53722  53.2174  32.6226 0001607  71.7959 288.3208 15.08837541 56123,6917.888,95.438,540.865,538.641,0.0
53722.0,STARLINK-4700,PAYLOAD,2023-09-08 19:51:43,15.08840814,0.000198,53.218,32.0259,68.6173,291.503,2.3592e-05,8.7e-07,0.0,0 STARLINK-4700,1 53722U 22107Y   23251.82759055  .00000087  00000-0  23592-4 0  9995,2 53722  53.2180  32.0259 0001980  68.6173 291.5030 15.08840814 56594,6917.878,95.438,541.113,538.373,0.0
53722.0,STARLINK-4700,PAYLOAD,2023-09-09 13:20:58,15.08836169,0.000146,53.2188,28.7545,76.424,283.6914,2.1048e-05,4.7e-07,0.0,0 STARLINK-4700,1 53722U 22107Y   23252.55623434  .00000047  00000-0  21048-4 0  9997,2 53722  53.2188  28.7545 0001460  76.4240 283.6914 15.08836169 56701,6917.892,95.438,540.767,538.747,0.0
53722.0,STARLINK-4700,PAYLOAD,2023-09-10 02:04:03,15.08836068,0.0001262,53.2187,26.3749,87.12,272.9936,0.00014227,1.977e-05,0.0,0 STARLINK-4700,1 53722U 22107Y   23253.08614958  .00001977  00000-0  14227-3 0  9990,2 53722  53.2187  26.3749 0001262  87.1200 272.9936 15.08836068 56337,6917.892,95.438,540.63,538.884,0.0
53722.0,STARLINK-4700,PAYLOAD,2023-09-10 13:11:45,15.08837208,0.0001134,53.2179,24.2962,94.3513,265.7609,0.00015995,2.259e-05,0.0,0 STARLINK-4700,1 53722U 22107Y   23253.54982999  .00002259  00000-0  15995-3 0  9991,2 53722  53.2179  24.2962 0001134  94.3513 265.7609 15.08837208 56858,6917.889,95.438,540.538,538.969,0.0
53722.0,STARLINK-4700,PAYLOAD,2023-09-10 17:57:54,15.08848093,0.0001265,53.2187,23.4015,87.774,272.3397,0.00015177,2.129e-05,0.0,0 STARLINK-4700,1 53722U 22107Y   23253.74854415  .00002129  00000-0  15177-3 0  9992,2 53722  53.2187  23.4015 0001265  87.7740 272.3397 15.08848093 56436,6917.856,95.437,540.596,538.846,0.0
53722.0,STARLINK-4700,PAYLOAD,2023-09-11 14:37:55,15.08839419,0.000127,53.2187,19.5365,85.9087,274.205,1.5963e-05,-3.4e-07,0.0,0 STARLINK-4700,1 53722U 22107Y   23254.60967455 -.00000034  00000-0  15963-4 0  9995,2 53722  53.2187  19.5365 0001270  85.9087 274.2050 15.08839419 57014,6917.882,95.438,540.626,538.869,0.0
53722.0,STARLINK-4700,PAYLOAD,2023-09-11 17:48:41,15.08847,0.0001361,53.2189,18.9415,84.3717,275.743,8.0821e-05,9.99e-06,0.0,0 STARLINK-4700,1 53722U 22107Y   23254.74214818  .00000999  00000-0  80821-4 0  9992,2 53722  53.2189  18.9415 0001361  84.3717 275.7430 15.08847000 56583,6917.859,95.437,540.666,538.782,0.0
53722.0,STARLINK-4700,PAYLOAD,2023-09-12 08:07:10,15.08841485,0.0001274,53.2181,16.268,78.5067,281.6069,3.9248e-05,3.37e-06,0.0,0 STARLINK-4700,1 53722U 22107Y   23255.33831225  .00000337  00000-0  39248-4 0  9998,2 53722  53.2181  16.2680 0001274  78.5067 281.6069 15.08841485 56671,6917.876,95.437,540.622,538.86,0.0
53722.0,STARLINK-4700,PAYLOAD,2023-09-12 12:53:19,15.0884349,0.0001118,53.2183,15.3751,86.0,274.112,5.3538e-05,5.64e-06,0.0,0 STARLINK-4700,1 53722U 22107Y   23255.53702952  .00000564  00000-0  53538-4 0  9994,2 53722  53.2183  15.3751 0001118  86.0000 274.1120 15.08843490 57157,6917.87,95.437,540.508,538.961,0.0
53722.0,STARLINK-4700,PAYLOAD,2023-09-12 14:28:42,15.08851044,0.0001267,53.2186,15.0765,85.0165,275.0972,4.9559e-05,5.01e-06,0.0,0 STARLINK-4700,1 53722U 22107Y   23255.60326519  .00000501  00000-0  49559-4 0  9992,2 53722  53.2186  15.0765 0001267  85.0165 275.0972 15.08851044 56718,6917.847,95.437,540.588,538.835,0.0
53722.0,STARLINK-4700,PAYLOAD,2023-09-13 12:44:05,15.08861573,0.0001296,53.2199,10.9154,74.0458,286.0677,1.7159e-05,-1.5e-07,0.0,0 STARLINK-4700,1 53722U 22107Y   23256.53061784 -.00000015  00000-0  17159-4 0  9997,2 53722  53.2199  10.9154 0001296  74.0458 286.0677 15.08861573 57301,6917.814,95.436,540.576,538.783,0.0
53722.0,STARLINK-4700,PAYLOAD,2023-09-13 17:30:14,15.08861645,0.000127,53.2192,10.0202,91.4527,268.6611,0.00018697,2.691e-05,0.0,0 STARLINK-4700,1 53722U 22107Y   23256.72932992  .00002691  00000-0  18697-3 0  9994,2 53722  53.2192  10.0202 0001270  91.4527 268.6611 15.08861645 56887,6917.814,95.436,540.558,538.801,0.0
53722.0,STARLINK-4700,PAYLOAD,2023-09-14 10:59:31,15.08819229,0.0001165,53.2181,6.7518,98.4038,261.7086,-9.8991e-05,-1.862e-05,0.0,0 STARLINK-4700,1 53722U 22107Y   23257.45800909 -.00001862  00000-0 -98991-4 0  9994,2 53722  53.2181   6.7518 0001165  98.4038 261.7086 15.08819229 56997,6917.944,95.439,540.615,539.003,0.0
53722.0,STARLINK-4700,PAYLOAD,2023-09-14 12:34:55,15.08819696,0.0001172,53.2182,6.4544,98.3346,261.7779,-9.039e-05,-1.725e-05,0.0,0 STARLINK-4700,1 53722U 22107Y   23257.52424963 -.00001725  00000-0 -90390-4 0  9997,2 53722  53.2182   6.4544 0001172  98.3346 261.7779 15.08819696 57452,6917.942,95.439,540.618,538.997,0.0
53722.0,STARLINK-4700,PAYLOAD,2023-09-14 14:10:17,15.08820488,0.0001233,53.2179,6.1558,105.4838,254.629,-0.00026608,-4.518e-05,0.0,0 STARLINK-4700,1 53722U 22107Y   23257.59048225 -.00004518  00000-0 -26608-3 0  9990,2 53722  53.2179   6.1558 0001233 105.4838 254.6290 15.08820488 57016,6917.94,95.439,540.658,538.952,0.0
